[{"OBJECT_NAME":"STARLINK-33833","OBJECT_ID":"2025-071F","EPOCH":"2026-03-09T11:08:01.479264","MEAN_MOTION":15.30182583,"ECCENTRICITY":0.00016721,"INCLINATION":53.159,"RA_OF_ASC_NODE":141.094,"ARG_OF_PERICENTER":60.2322,"MEAN_ANOMALY":299.8845,"EPHEMERIS_TYPE":0,"CLASSIFICATION_TYPE":"U","NORAD_CAT_ID":63498,"ELEMENT_SET_NO":999,"REV_AT_EPOCH":5273,"BSTAR":0.0003050149,"MEAN_MOTION_DOT":8.68e-5,"MEAN_MOTION_DDOT":0},{"OBJECT_NAME":"CZ-4B DEB","OBJECT_ID":"1999-057DZ","EPOCH":"2026-03-09T09:52:12.897696","MEAN_MOTION":15.33653758,"ECCENTRICITY":0.00127381,"INCLINATION":98.4932,"RA_OF_ASC_NODE":238.6814,"ARG_OF_PERICENTER":254.7139,"MEAN_ANOMALY":105.2693,"EPHEMERIS_TYPE":0,"CLASSIFICATION_TYPE":"U","NORAD_CAT_ID":26235,"ELEMENT_SET_NO":999,"REV_AT_EPOCH":38912,"BSTAR":0.0023807093,"MEAN_MOTION_DOT":0.00078286,"MEAN_MOTION_DDOT":0}]
